{
    "links": {
        "self": "http://www.neowsapp.com/rest/v1/neo/3789475?api_key=iIulBulltgU6a56xZRHN4H3l9WmuAYTsLGpBGhQ2"
    },
    "id": "3789475",
    "neo_reference_id": "3789475",
    "name": "(2017 WN1)",
    "designation": "2017 WN1",
    "nasa_jpl_url": "http://ssd.jpl.nasa.gov/sbdb.cgi?sstr=3789475",
    "absolute_magnitude_h": 24.0,
    "estimated_diameter": {
        "kilometers": {
            "estimated_diameter_min": 0.0421264611,
            "estimated_diameter_max": 0.0941976306
        },
        "meters": {
            "estimated_diameter_min": 42.1264610556,
            "estimated_diameter_max": 94.1976305719
        },
        "miles": {
            "estimated_diameter_min": 0.0261761612,
            "estimated_diameter_max": 0.0585316759
        },
        "feet": {
            "estimated_diameter_min": 138.2101784897,
            "estimated_diameter_max": 309.0473542854
        }
    },
    "is_potentially_hazardous_asteroid": false,
    "close_approach_data": [
        {
            "close_approach_date": "2017-11-12",
            "close_approach_date_full": "2017-Nov-12 13:38",
            "epoch_date_close_approach": 1510493880000,
            "relative_velocity": {
                "kilometers_per_second": "20.1839060456",
                "kilometers_per_hour": "72662.06176403",
                "miles_per_hour": "45149.3794333219"
            },
            "miss_distance": {
                "astronomical": "0.0477979886",
                "lunar": "18.5934175654",
                "kilometers": "7150477.284844282",
                "miles": "4443100.5554918116"
            },
            "orbiting_body": "Earth"
        }
    ],
    "orbital_data": {
        "orbit_id": "5",
        "orbit_determination_date": "2017-12-02 06:16:59",
        "first_observation_date": "2017-11-18",
        "last_observation_date": "2017-11-29",
        "data_arc_in_days": 11,
        "observations_used": 50,
        "orbit_uncertainty": "8",
        "minimum_orbit_intersection": ".0430906",
        "jupiter_tisserand_invariant": "3.568",
        "epoch_osculation": "2458077.5",
        "eccentricity": ".5953298588102547",
        "semi_major_axis": "1.938719038081786",
        "inclination": "25.67990141214963",
        "ascending_node_longitude": "234.9650280214443",
        "orbital_period": "985.9859796205985",
        "perihelion_distance": ".7845417068678034",
        "perihelion_argument": "108.4088978592876",
        "aphelion_distance": "3.092896369295768",
        "perihelion_time": "2458024.628703893999",
        "mean_anomaly": "19.30419599423148",
        "mean_motion": ".3651167536261782",
        "equinox": "J2000",
        "orbit_class": {
            "orbit_class_type": "APO",
            "orbit_class_description": "Near-Earth asteroid orbits which cross the Earth’s orbit similar to that of 1862 Apollo",
            "orbit_class_range": "a (semi-major axis) > 1.0 AU; q (perihelion) < 1.017 AU"
        }
    },
    "is_sentry_object": false
}